{
    "links": {
        "self": "http://www.neowsapp.com/rest/v1/neo/54053779?api_key=iIulBulltgU6a56xZRHN4H3l9WmuAYTsLGpBGhQ2"
    },
    "id": "54053779",
    "neo_reference_id": "54053779",
    "name": "(2020 RN1)",
    "designation": "2020 RN1",
    "nasa_jpl_url": "http://ssd.jpl.nasa.gov/sbdb.cgi?sstr=54053779",
    "absolute_magnitude_h": 25.256,
    "estimated_diameter": {
        "kilometers": {
            "estimated_diameter_min": 0.0236240839,
            "estimated_diameter_max": 0.0528250575
        },
        "meters": {
            "estimated_diameter_min": 23.6240839145,
            "estimated_diameter_max": 52.8250575391
        },
        "miles": {
            "estimated_diameter_min": 0.0146793206,
            "estimated_diameter_max": 0.0328239588
        },
        "feet": {
            "estimated_diameter_min": 77.5068394702,
            "estimated_diameter_max": 173.3105617765
        }
    },
    "is_potentially_hazardous_asteroid": false,
    "close_approach_data": [
        {
            "close_approach_date": "1922-12-21",
            "close_approach_date_full": "1922-Dec-21 00:48",
            "epoch_date_close_approach": -1484176320000,
            "relative_velocity": {
                "kilometers_per_second": "2.7585681486",
                "kilometers_per_hour": "9930.84533487",
                "miles_per_hour": "6170.6410915474"
            },
            "miss_distance": {
                "astronomical": "1.7710675882",
                "lunar": "688.9452918098",
                "kilometers": "264947938.820757134",
                "miles": "164631015.1416070892"
            },
            "orbiting_body": "Juptr"
        },
        {
            "close_approach_date": "1924-08-27",
            "close_approach_date_full": "1924-Aug-27 04:31",
            "epoch_date_close_approach": -1431026940000,
            "relative_velocity": {
                "kilometers_per_second": "16.1321005859",
                "kilometers_per_hour": "58075.562109209",
                "miles_per_hour": "36085.8958005805"
            },
            "miss_distance": {
                "astronomical": "0.2619701666",
                "lunar": "101.9063948074",
                "kilometers": "39190178.926905142",
                "miles": "24351647.9842572796"
            },
            "orbiting_body": "Earth"
        },
        {
            "close_approach_date": "2009-08-15",
            "close_approach_date_full": "2009-Aug-15 16:30",
            "epoch_date_close_approach": 1250353800000,
            "relative_velocity": {
                "kilometers_per_second": "21.517842525",
                "kilometers_per_hour": "77464.2330900335",
                "miles_per_hour": "48133.2619441933"
            },
            "miss_distance": {
                "astronomical": "0.4211908082",
                "lunar": "163.8432243898",
                "kilometers": "63009247.770298534",
                "miles": "39152131.0560224092"
            },
            "orbiting_body": "Earth"
        },
        {
            "close_approach_date": "2020-09-17",
            "close_approach_date_full": "2020-Sep-17 16:55",
            "epoch_date_close_approach": 1600361700000,
            "relative_velocity": {
                "kilometers_per_second": "9.8280741529",
                "kilometers_per_hour": "35381.0669503308",
                "miles_per_hour": "21984.4190725542"
            },
            "miss_distance": {
                "astronomical": "0.0474244924",
                "lunar": "18.4481275436",
                "kilometers": "7094603.048871188",
                "miles": "4408381.9151828744"
            },
            "orbiting_body": "Earth"
        },
        {
            "close_approach_date": "2024-04-01",
            "close_approach_date_full": "2024-Apr-01 05:12",
            "epoch_date_close_approach": 1711948320000,
            "relative_velocity": {
                "kilometers_per_second": "11.028650512",
                "kilometers_per_hour": "39703.1418430578",
                "miles_per_hour": "24669.9883302044"
            },
            "miss_distance": {
                "astronomical": "0.0941722947",
                "lunar": "36.6330226383",
                "kilometers": "14087974.700132289",
                "miles": "8753861.5567080282"
            },
            "orbiting_body": "Mars"
        }
    ],
    "orbital_data": {
        "orbit_id": "4",
        "orbit_determination_date": "2020-09-15 06:56:39",
        "first_observation_date": "2020-08-16",
        "last_observation_date": "2020-09-15",
        "data_arc_in_days": 30,
        "observations_used": 19,
        "orbit_uncertainty": "7",
        "minimum_orbit_intersection": ".0103715",
        "jupiter_tisserand_invariant": "3.274",
        "epoch_osculation": "2459000.5",
        "eccentricity": ".5859681064537576",
        "semi_major_axis": "2.389494955636457",
        "inclination": "3.408110702660299",
        "ascending_node_longitude": "359.6591338453326",
        "orbital_period": "1349.141818114784",
        "perihelion_distance": ".9893271211013566",
        "perihelion_argument": "25.68635238641842",
        "aphelion_distance": "3.789662790171557",
        "perihelion_time": "2459133.356637188006",
        "mean_anomaly": "324.5490275777568",
        "mean_motion": ".2668362919052084",
        "equinox": "J2000",
        "orbit_class": {
            "orbit_class_type": "APO",
            "orbit_class_description": "Near-Earth asteroid orbits which cross the Earth’s orbit similar to that of 1862 Apollo",
            "orbit_class_range": "a (semi-major axis) > 1.0 AU; q (perihelion) < 1.017 AU"
        }
    },
    "is_sentry_object": false
}